[
    {
        "CCSDS_OMM_VERS": "3.0",
        "COMMENT": "GENERATED VIA SPACE-TRACK.ORG API",
        "CREATION_DATE": "2025-03-02T22:46:31",
        "ORIGINATOR": "18 SPCS",
        "OBJECT_NAME": "COSMOS 2464 (GLONASS)",
        "OBJECT_ID": "2010-041C",
        "CENTER_NAME": "EARTH",
        "REF_FRAME": "TEME",
        "TIME_SYSTEM": "UTC",
        "MEAN_ELEMENT_THEORY": "SGP4",
        "EPOCH": "2025-03-02T15:36:01.522368",
        "MEAN_MOTION": "2.13099527",
        "ECCENTRICITY": "0.00333040",
        "INCLINATION": "63.9175",
        "RA_OF_ASC_NODE": "206.4127",
        "ARG_OF_PERICENTER": "12.4612",
        "MEAN_ANOMALY": "349.7053",
        "EPHEMERIS_TYPE": "0",
        "CLASSIFICATION_TYPE": "U",
        "NORAD_CAT_ID": "37139",
        "ELEMENT_SET_NO": "999",
        "REV_AT_EPOCH": "11283",
        "BSTAR": "0.00000000000000",
        "MEAN_MOTION_DOT": "0.00000055",
        "MEAN_MOTION_DDOT": "0.0000000000000",
        "SEMIMAJOR_AXIS": "25508.222",
        "PERIOD": "675.741",
        "APOAPSIS": "19215.039",
        "PERIAPSIS": "19045.134",
        "OBJECT_TYPE": "PAYLOAD",
        "RCS_SIZE": "LARGE",
        "COUNTRY_CODE": "CIS",
        "LAUNCH_DATE": "2010-09-02",
        "SITE": "TTMTR",
        "DECAY_DATE": null,
        "FILE": "4657310",
        "GP_ID": "282104464",
        "TLE_LINE0": "0 COSMOS 2464 (GLONASS)",
        "TLE_LINE1": "1 37139U 10041C   25061.65001762  .00000055  00000-0  00000+0 0  9999",
        "TLE_LINE2": "2 37139  63.9175 206.4127 0033304  12.4612 349.7053  2.13099527112831"
    }
]